INMARSAT 4-F2           
1 28899U 05044A   26062.82884977 -.00000271  00000+0  00000+0 0  9997
2 28899   4.9565  43.8040 0002619 317.3778 242.2859  1.00271478 74463
GSAT-8                  
1 37605U 11022A   26063.09655409  .00000073  00000+0  00000+0 0  9990
2 37605   1.8595  83.1619 0007381 214.8948 313.5960  1.00272148 52160
LUCH-5A                 
1 37951U 11074B   26062.83352980 -.00000057  00000+0  00000+0 0  9993
2 37951   8.4858  75.3546 0004005 243.8626 309.5287  1.00275356 51997
SES-5                   
1 38652U 12036A   26063.15800102  .00000021  00000+0  00000+0 0  9991
2 38652   0.0603 310.7900 0002021  27.8584 245.1093  1.00271928 43409
GSAT-10                 
1 38779U 12051B   26062.45600324 -.00000179  00000+0  00000+0 0  9999
2 38779   0.0759 263.9438 0004157 175.5434 328.8469  1.00273302 49032
LUCH-5B                 
1 38977U 12061A   26062.90224160 -.00000146  00000+0  00000+0 0  9994
2 38977  10.2575  50.9099 0004391 223.3648 195.8772  1.00271596 48555
ASTRA 5B                
1 39617U 14011B   26063.06919770  .00000124  00000+0  00000+0 0  9994
2 39617   0.0915 298.4827 0004158  26.5677 245.1554  1.00270762 43619
LUCH-5V                 
1 39727U 14023A   26063.10444079 -.00000279  00000+0  00000+0 0  9991
2 39727   4.8741  70.7773 0002986 278.0466 305.3623  1.00271806 43300
GSAT-15                 
1 41028U 15065A   26063.03285379 -.00000270  00000+0  00000+0 0  9994
2 41028   0.0905 270.0434 0000814  97.3378 259.7031  1.00268671 37740
EUTELSAT 117 WEST B     
1 41589U 16038B   26063.13382090 -.00000024  00000+0  00000+0 0  9993
2 41589   0.0383 347.9115 0000199 235.6485 229.5029  1.00271894 35611
SES-15                  
1 42709U 17026A   26063.13139422  .00000047  00000+0  00000+0 0  9999
2 42709   0.0446 309.4036 0000725  34.2900  96.3137  1.00270724  6373
QZS-2 (MICHIBIKI-2)     
1 42738U 17028A   26062.69035646 -.00000177  00000+0  00000+0 0  9991
2 42738  39.5914 244.6899 0745772 270.3237  36.6065  1.00262193  6562
QZS-3 (MICHIBIKI-3)     
1 42917U 17048A   26063.03952715 -.00000361  00000+0  00000+0 0  9991
2 42917   0.0732 217.5376 0002246 136.1343 309.3169  1.00276118 31206
QZS-4 (MICHIBIKI-4)     
1 42965U 17062A   26062.71119282 -.00000343  00000+0  00000+0 0  9998
2 42965  40.1734 344.8321 0748758 269.8785 303.2235  1.00280942 30744
BEIDOU-3 G1             
1 43683U 18085A   26063.20893297 -.00000290  00000+0  00000+0 0  9993
2 43683   2.8102 100.3911 0001342  24.9069 251.9134  1.00268563 27009
EUTELSAT 5 WEST B       
1 44624U 19067A   26063.15600767 -.00000055  00000+0  00000+0 0  9991
2 44624   0.0953 310.0726 0003201  41.6885 221.2732  1.00272586 23382
BEIDOU-3 G2             
1 45344U 20017A   26063.10149411 -.00000151  00000+0  00000+0 0  9994
2 45344   2.6538  45.6555 0002769 309.2893 283.4763  1.00271474 22209
